[{"OBJECT_NAME":"STARLINK-4349","OBJECT_ID":"2022-077B","EPOCH":"2026-03-10T00:00:02.999808","MEAN_MOTION":15.82599286,"ECCENTRICITY":0.00011323,"INCLINATION":97.6018,"RA_OF_ASC_NODE":259.1547,"ARG_OF_PERICENTER":279.8477,"MEAN_ANOMALY":6.0284,"EPHEMERIS_TYPE":0,"CLASSIFICATION_TYPE":"U","NORAD_CAT_ID":53044,"ELEMENT_SET_NO":999,"REV_AT_EPOCH":598,"BSTAR":0.0011162879,"MEAN_MOTION_DOT":0.00238434,"MEAN_MOTION_DDOT":0},{"OBJECT_NAME":"E-KAGAKU-1","OBJECT_ID":"1998-067XQ","EPOCH":"2026-03-09T04:54:01.338624","MEAN_MOTION":15.79952839,"ECCENTRICITY":0.00059949,"INCLINATION":51.6231,"RA_OF_ASC_NODE":59.8799,"ARG_OF_PERICENTER":71.0576,"MEAN_ANOMALY":289.1075,"EPHEMERIS_TYPE":0,"CLASSIFICATION_TYPE":"U","NORAD_CAT_ID":65943,"ELEMENT_SET_NO":999,"REV_AT_EPOCH":2342,"BSTAR":0.0011367171,"MEAN_MOTION_DOT":0.00220564,"MEAN_MOTION_DDOT":0}]
